ASTRA 1M                
1 33436U 08057A   26189.14689425  .00000136  00000+0  00000+0 0  9992
2 33436   0.3471  82.7230 0004853  38.5568 237.1005  1.00273347 45940
EUTELSAT HOTBIRD 13C    
1 33459U 08065A   26189.13864318 -.00000270  00000+0  00000+0 0  9991
2 33459   3.0009  78.9442 0003423  27.8913 178.8464  1.00274294 47552
EXPRESS-AM44            
1 33595U 09007A   26189.14091422 -.00000077  00000+0  00000+0 0  9993
2 33595   3.5140  78.1462 0004019  22.2179 225.4494  1.00271542 52497
NSS-9                   
1 33749U 09008A   26189.10801565  .00000086  00000+0  00000+0 0  9997
2 33749   1.3125  82.4582 0002036  13.7872  51.7803  1.00269868 63731
TELSTAR 11N             
1 34111U 09009A   26189.16294722 -.00000236  00000+0  00000+0 0  9997
2 34111   0.0256  76.3745 0002389  32.6661 198.1865  1.00270442 46450
WGS F2 (USA 204)        
1 34713U 09017A   26189.15443428  .00000083  00000+0  00000+0 0  9991
2 34713   0.0187  29.3672 0000434 167.0439 202.7948  1.00272067 45822
SES-7 (PROTOSTAR 2)     
1 34941U 09027A   26189.06780808 -.00000330  00000+0  00000+0 0  9997
2 34941   0.0130  42.9370 0001274 149.3002 226.4451  1.00270285 62833
MEASAT-3A               
1 35362U 09032A   26189.10350897 -.00000096  00000+0  00000+0 0  9996
2 35362   0.0214  11.8800 0002872  89.3192  22.1276  1.00270809  8248
GOES 14                 
1 35491U 09033A   26189.18516823 -.00000336  00000+0  00000+0 0  9998
2 35491   1.7406  82.7877 0001996  35.8788   3.5369  1.00101941  6802
FM-5                    
1 35493U 09034A   26189.19575880 -.00000185  00000+0  00000+0 0  9992
2 35493   0.0393 268.9657 0000984  67.4787 294.0140  1.00269649 46854
TERRESTAR-1             
1 35496U 09035A   26189.12105410 -.00000045  00000+0  00000+0 0  9992
2 35496   5.1947  48.7824 0002589  50.6969 119.1649  1.00271887 62347
ASIASAT 5               
1 35696U 09042A   26189.11642233 -.00000291  00000+0  00000+0 0  9993
2 35696   0.0297 273.0870 0001680 175.5375 339.8394  1.00268074 61918
JCSAT-12 (JCSAT-RA)     
1 35755U 09044A   26189.17961899 -.00000313  00000+0  00000+0 0  9994
2 35755   0.0465 274.4497 0001240 274.4463 293.9448  1.00271905 61827
OPTUS D3                
1 35756U 09044B   26189.10272896 -.00000130  00000+0  00000+0 0  9997
2 35756   0.8870 268.3962 0003147 205.3626   5.4183  1.00269647 61773
NIMIQ 5                 
1 35873U 09050A   26189.17839396 -.00000242  00000+0  00000+0 0  9999
2 35873   0.0563 261.7610 0002678 202.3485 173.5476  1.00270251 61550
AMAZONAS 2              
1 35942U 09054A   26189.17777125 -.00000245  00000+0  00000+0 0  9994
2 35942   1.8666  82.7860 0003267  24.9050 170.4461  1.00272559 61394
COMSATBW-1              
1 35943U 09054B   26189.15556095  .00000039  00000+0  00000+0 0  9994
2 35943   0.0602 193.8087 0002748 283.1713 288.1845  1.00276412 61518
NSS-12                  
1 36032U 09058A   26189.15434763  .00000086  00000+0  00000+0 0  9997
2 36032   0.0514 280.3497 0004298 152.4883 325.8517  1.00273250 61124
THOR 6                  
1 36033U 09058B   26189.14290757  .00000005  00000+0  00000+0 0  9991
2 36033   0.0402 233.5422 0002239 265.0417 198.1098  1.00271097 61218
INTELSAT 14 (IS-14)     
1 36097U 09064A   26189.16294722 -.00000258  00000+0  00000+0 0  9997
2 36097   0.0056  43.6992 0002270  72.9867 183.1074  1.00270663 60815
EUTELSAT 36B            
1 36101U 09065A   26189.15304762  .00000127  00000+0  00000+0 0  9993
2 36101   0.5406  81.2868 0005853  26.7062 283.6924  1.00271187 60912
INTELSAT 15 (IS-15)     
1 36106U 09067A   26189.08868889 -.00000170  00000+0  00000+0 0  9996
2 36106   0.0178  28.4079 0002233  84.3689 290.3489  1.00271052 41437
WGS F3 (USA 211)        
1 36108U 09068A   26188.97480118  .00000079  00000+0  00000+0 0  9998
2 36108   0.3039  85.6791 0000602  83.0717 338.1346  1.00272028 46803
DIRECTV 12              
1 36131U 09075A   26188.62368785 -.00000088  00000+0  00000+0 0  9990
2 36131   0.0370 181.4659 0000279 336.4988 249.4222  1.00271960 46752
BEIDOU-2 G1             
1 36287U 10001A   26188.88573134 -.00000268  00000+0  00000+0 0  9997
2 36287   4.3387  60.3366 0001657 302.9039  21.9176  1.00268940 60374
SDO                     
1 36395U 10005A   26188.25007061 -.00000076  00000+0  00000+0 0  9990
2 36395  34.6901  86.0392 0001652  55.2327 131.6689  1.00269725 60267
INTELSAT 16 (IS-16)     
1 36397U 10006A   26189.19735014 -.00000229  00000+0  00000+0 0  9993
2 36397   0.0118 327.1992 0002449 163.2959 150.4960  1.00269402 59864
EWS-G2 (GOES 15)        
1 36411U 10008A   26189.15564763  .00000036  00000+0  00000+0 0  9994
2 36411   1.3319  82.5589 0005292  51.3211 271.6673  1.00268165 59849
ECHOSTAR 14             
1 36499U 10010A   26189.13740977  .00000015  00000+0  00000+0 0  9991
2 36499   0.0516 260.6828 0001873 198.8309 117.1390  1.00271532 46760
SES-1                   
1 36516U 10016A   26189.23005654 -.00000099  00000+0  00000+0 0  9997
2 36516   0.0314 297.7960 0002572 166.7970 163.4089  1.00270789 59248
ASTRA 3B                
1 36581U 10021A   26189.14750093  .00000151  00000+0  00000+0 0  9997
2 36581   1.5226  83.3013 0004264  19.6309 259.7651  1.00273767 59072
COMSATBW-2              
1 36582U 10021B   26189.16919749  .00000103  00000+0  00000+0 0  9992
2 36582   0.0425 139.3265 0002436 344.0513 236.8629  1.00271699 59163
