OBJECT_NAME,OBJECT_ID,EPOCH,MEAN_MOTION,ECCENTRICITY,INCLINATION,RA_OF_ASC_NODE,ARG_OF_PERICENTER,MEAN_ANOMALY,EPHEMERIS_TYPE,CLASSIFICATION_TYPE,NORAD_CAT_ID,ELEMENT_SET_NO,REV_AT_EPOCH,BSTAR,MEAN_MOTION_DOT,MEAN_MOTION_DDOT
ASTRA 1M,2008-057A,2026-07-08T03:31:31.663200,1.00273347,.0004853,0.3471,82.7230,38.5568,237.1005,0,U,33436,999,4594,0,.136E-5,0
EUTELSAT HOTBIRD 13C,2008-065A,2026-07-08T03:19:38.770752,1.00274294,.0003423,3.0009,78.9442,27.8913,178.8464,0,U,33459,999,4755,0,-.27E-5,0
EXPRESS-AM44,2009-007A,2026-07-08T03:22:54.988608,1.00271542,.0004019,3.5140,78.1462,22.2179,225.4494,0,U,33595,999,5249,0,-.77E-6,0
NSS-9,2009-008A,2026-07-08T02:35:32.552160,1.00269868,.0002036,1.3125,82.4582,13.7872,51.7803,0,U,33749,999,6373,0,.86E-6,0
TELSTAR 11N,2009-009A,2026-07-08T03:54:38.639808,1.00270442,.0002389,0.0256,76.3745,32.6661,198.1865,0,U,34111,999,4645,0,-.236E-5,0
WGS F2 (USA 204),2009-017A,2026-07-08T03:42:23.121792,1.00272067,.0000434,0.0187,29.3672,167.0439,202.7948,0,U,34713,999,4582,0,.83E-6,0
SES-7 (PROTOSTAR 2),2009-027A,2026-07-08T01:37:38.618112,1.00270285,.0001274,0.0130,42.9370,149.3002,226.4451,0,U,34941,999,6283,0,-.33E-5,0
MEASAT-3A,2009-032A,2026-07-08T02:29:03.175008,1.00270809,.0002872,0.0214,11.8800,89.3192,22.1276,0,U,35362,999,824,0,-.96E-6,0
GOES 14,2009-033A,2026-07-08T04:26:38.535072,1.00101941,.0001996,1.7406,82.7877,35.8788,3.5369,0,U,35491,999,680,0,-.336E-5,0
FM-5,2009-034A,2026-07-08T04:41:53.560320,1.00269649,.0000984,0.0393,268.9657,67.4787,294.0140,0,U,35493,999,4685,0,-.185E-5,0
TERRESTAR-1,2009-035A,2026-07-08T02:54:19.074240,1.00271887,.0002589,5.1947,48.7824,50.6969,119.1649,0,U,35496,999,6234,0,-.45E-6,0
ASIASAT 5,2009-042A,2026-07-08T02:47:38.889312,1.00268074,.000168,0.0297,273.0870,175.5375,339.8394,0,U,35696,999,6191,0,-.291E-5,0
JCSAT-12 (JCSAT-RA),2009-044A,2026-07-08T04:18:39.080736,1.00271905,.000124,0.0465,274.4497,274.4463,293.9448,0,U,35755,999,6182,0,-.313E-5,0
OPTUS D3,2009-044B,2026-07-08T02:27:55.782144,1.00269647,.0003147,0.8870,268.3962,205.3626,5.4183,0,U,35756,999,6177,0,-.13E-5,0
NIMIQ 5,2009-050A,2026-07-08T04:16:53.238144,1.00270251,.0002678,0.0563,261.7610,202.3485,173.5476,0,U,35873,999,6155,0,-.242E-5,0
AMAZONAS 2,2009-054A,2026-07-08T04:15:59.436000,1.00272559,.0003267,1.8666,82.7860,24.9050,170.4461,0,U,35942,999,6139,0,-.245E-5,0
COMSATBW-1,2009-054B,2026-07-08T03:44:00.466080,1.00276412,.0002748,0.0602,193.8087,283.1713,288.1845,0,U,35943,999,6151,0,.39E-6,0
NSS-12,2009-058A,2026-07-08T03:42:15.635232,1.00273250,.0004298,0.0514,280.3497,152.4883,325.8517,0,U,36032,999,6112,0,.86E-6,0
THOR 6,2009-058B,2026-07-08T03:25:47.214048,1.00271097,.0002239,0.0402,233.5422,265.0417,198.1098,0,U,36033,999,6121,0,.5E-7,0
INTELSAT 14 (IS-14),2009-064A,2026-07-08T03:54:38.639808,1.00270663,.000227,0.0056,43.6992,72.9867,183.1074,0,U,36097,999,6081,0,-.258E-5,0
EUTELSAT 36B,2009-065A,2026-07-08T03:40:23.314368,1.00271187,.0005853,0.5406,81.2868,26.7062,283.6924,0,U,36101,999,6091,0,.127E-5,0
INTELSAT 15 (IS-15),2009-067A,2026-07-08T02:07:42.720096,1.00271052,.0002233,0.0178,28.4079,84.3689,290.3489,0,U,36106,999,4143,0,-.17E-5,0
WGS F3 (USA 211),2009-068A,2026-07-07T23:23:42.821952,1.00272028,.0000602,0.3039,85.6791,83.0717,338.1346,0,U,36108,999,4680,0,.79E-6,0
DIRECTV 12,2009-075A,2026-07-07T14:58:06.630240,1.00271960,.0000279,0.0370,181.4659,336.4988,249.4222,0,U,36131,999,4675,0,-.88E-6,0
BEIDOU-2 G1,2010-001A,2026-07-07T21:15:27.187776,1.00268940,.0001657,4.3387,60.3366,302.9039,21.9176,0,U,36287,999,6037,0,-.268E-5,0
SDO,2010-005A,2026-07-07T06:00:06.100704,1.00269725,.00016526,34.6901,86.0392,55.2327,131.6689,0,U,36395,999,6026,0,-.76E-6,0
INTELSAT 16 (IS-16),2010-006A,2026-07-08T04:44:11.052096,1.00269402,.0002449,0.0118,327.1992,163.2959,150.4960,0,U,36397,999,5986,0,-.229E-5,0
EWS-G2 (GOES 15),2010-008A,2026-07-08T03:44:07.955232,1.00268165,.0005292,1.3319,82.5589,51.3211,271.6673,0,U,36411,999,5984,0,.36E-6,0
ECHOSTAR 14,2010-010A,2026-07-08T03:17:52.204128,1.00271532,.0001873,0.0516,260.6828,198.8309,117.1390,0,U,36499,999,4676,0,.15E-6,0
SES-1,2010-016A,2026-07-08T05:31:16.885056,1.00270789,.0002572,0.0314,297.7960,166.7970,163.4089,0,U,36516,999,5924,0,-.99E-6,0
ASTRA 3B,2010-021A,2026-07-08T03:32:24.080352,1.00273767,.0004264,1.5226,83.3013,19.6309,259.7651,0,U,36581,999,5907,0,.151E-5,0
COMSATBW-2,2010-021B,2026-07-08T04:03:38.663136,1.00271699,.0002436,0.0425,139.3265,344.0513,236.8629,0,U,36582,999,5916,0,.103E-5,0
